[{"OBJECT_NAME":"ONEWEB-0304","OBJECT_ID":"2021-075T","EPOCH":"2026-03-09T22:04:29.304768","MEAN_MOTION":13.17649847,"ECCENTRICITY":0.0001885,"INCLINATION":87.9156,"RA_OF_ASC_NODE":25.5802,"ARG_OF_PERICENTER":75.7343,"MEAN_ANOMALY":284.3997,"EPHEMERIS_TYPE":0,"CLASSIFICATION_TYPE":"U","NORAD_CAT_ID":49092,"ELEMENT_SET_NO":999,"REV_AT_EPOCH":22050,"BSTAR":-5.20383e-6,"MEAN_MOTION_DOT":1.1e-7,"MEAN_MOTION_DDOT":0},{"OBJECT_NAME":"UNKNOWN","OBJECT_ID":"","EPOCH":"2026-03-07T03:18:42.609888","MEAN_MOTION":13.06608885,"ECCENTRICITY":0.02637621,"INCLINATION":105.839,"RA_OF_ASC_NODE":212.533,"ARG_OF_PERICENTER":328.7653,"MEAN_ANOMALY":29.7988,"EPHEMERIS_TYPE":0,"CLASSIFICATION_TYPE":"U","NORAD_CAT_ID":270344,"ELEMENT_SET_NO":999,"REV_AT_EPOCH":21311,"BSTAR":0.0016368677,"MEAN_MOTION_DOT":5.6e-6,"MEAN_MOTION_DDOT":0}]
